STARLINK-35999          
1 66951U 25286AC  25354.16667823 -.01589224  00000+0 -10867-1 0  9993
2 66951  53.1557  13.0276 0001251  87.6073  85.7730 15.77243088  3181
STARLINK-36122          
1 66952U 25286AD  25354.16667823 -.01574109  00000+0 -10713-1 0  9990
2 66952  53.1557  13.0364 0001285  81.9142  87.3228 15.77316264  3188
HULIANWANG DIGUI-114    
1 66953U 25287A   25352.62399740  .00000026  00000+0  10869-4 0  9995
2 66953  86.4968 344.0089 0008703 188.5983 171.5028 13.67416524  1330
HULIANWANG DIGUI-115    
1 66954U 25287B   25352.62327045  .00000026  00000+0  10945-4 0  9990
2 66954  86.4978 344.0137 0008947 187.4507 172.6520 13.67541232  1330
HULIANWANG DIGUI-116    
1 66955U 25287C   25352.62247367  .00000139  00000+0  14472-3 0  9992
2 66955  86.4902 344.0030 0008504 181.1085 179.0056 13.67658665  1335
HULIANWANG DIGUI-117    
1 66956U 25287D   25352.62166759  .00000026  00000+0  10922-4 0  9990
2 66956  86.4971 344.0126 0007676 176.3616 183.7600 13.67770338  1332
HULIANWANG DIGUI-118    
1 66957U 25287E   25353.71807434  .00000127  00000+0  13028-3 0  9995
2 66957  86.4967 343.6097 0007363 172.7883 187.3383 13.67870424  1480
CZ-6A R/B               
1 66958U 25287F   25353.94793772  .00000065  00000+0  32634-4 0  9996
2 66958  86.5060 343.3602 0107290  80.4872 280.8408 13.94920836  1545
STARLINK-35887          
1 66959U 25288A   25354.16667823 -.01302730  00000+0 -71628-2 0  9991
2 66959  43.0016 121.6938 0001550 268.2514 334.0870 15.81624271  3027
STARLINK-35879          
1 66960U 25288B   25354.16667823 -.01300777  00000+0 -71482-2 0  9990
2 66960  43.0016 121.6886 0001700 266.0535 338.2346 15.81629535  3029
STARLINK-35761          
1 66961U 25288C   25354.16667823 -.01311167  00000+0 -72134-2 0  9991
2 66961  43.0015 121.6839 0001495 268.2299 338.1336 15.81631664  3023
STARLINK-35874          
1 66962U 25288D   25354.16667823 -.01323203  00000+0 -73030-2 0  9992
2 66962  43.0017 121.6770 0001704 262.6227 346.3147 15.81588544  3021
